CCSDS_OMM_VERS = 2.0
CREATION_DATE  = 
ORIGINATOR     = 

OBJECT_NAME    = SL-3 R/B
OBJECT_ID      = 1982-079B
CENTER_NAME    = EARTH
REF_FRAME      = TEME
TIME_SYSTEM    = UTC
MEAN_ELEMENT_THEORY = SGP/SGP4

EPOCH          = 2025-12-03T22:41:46.380480
MEAN_MOTION    = 15.23428033
ECCENTRICITY   = .0026793
INCLINATION    = 81.1457
RA_OF_ASC_NODE = 306.0260
ARG_OF_PERICENTER = 127.1030
MEAN_ANOMALY   = 233.2658

EPHEMERIS_TYPE = 0
CLASSIFICATION_TYPE = U
NORAD_CAT_ID   = 13403
ELEMENT_SET_NO = 999
REV_AT_EPOCH   = 36311
BSTAR          = .43553851E-3
MEAN_MOTION_DOT = .10505E-3
MEAN_MOTION_DDOT = 0

CCSDS_OMM_VERS = 2.0
CREATION_DATE  = 
ORIGINATOR     = 

OBJECT_NAME    = SL-3 R/B
OBJECT_ID      = 1983-075B
CENTER_NAME    = EARTH
REF_FRAME      = TEME
TIME_SYSTEM    = UTC
MEAN_ELEMENT_THEORY = SGP/SGP4

EPOCH          = 2025-12-03T23:49:15.837888
MEAN_MOTION    = 15.35862445
ECCENTRICITY   = .00217644
INCLINATION    = 97.6095
RA_OF_ASC_NODE = 334.1845
ARG_OF_PERICENTER = 207.4043
MEAN_ANOMALY   = 152.6054

EPHEMERIS_TYPE = 0
CLASSIFICATION_TYPE = U
NORAD_CAT_ID   = 14208
ELEMENT_SET_NO = 999
REV_AT_EPOCH   = 31545
BSTAR          = .5225424E-3
MEAN_MOTION_DOT = .18314E-3
MEAN_MOTION_DDOT = 0

CCSDS_OMM_VERS = 2.0
CREATION_DATE  = 
ORIGINATOR     = 

OBJECT_NAME    = SL-14 R/B
OBJECT_ID      = 1984-027B
CENTER_NAME    = EARTH
REF_FRAME      = TEME
TIME_SYSTEM    = UTC
MEAN_ELEMENT_THEORY = SGP/SGP4

EPOCH          = 2025-12-03T11:08:34.589472
MEAN_MOTION    = 14.85858141
ECCENTRICITY   = .00165305
INCLINATION    = 82.5409
RA_OF_ASC_NODE = 335.2556
ARG_OF_PERICENTER = 294.4813
MEAN_ANOMALY   = 65.4679

EPHEMERIS_TYPE = 0
CLASSIFICATION_TYPE = U
NORAD_CAT_ID   = 14820
ELEMENT_SET_NO = 999
REV_AT_EPOCH   = 23334
BSTAR          = .92105286E-4
MEAN_MOTION_DOT = .827E-5
MEAN_MOTION_DDOT = 0

CCSDS_OMM_VERS = 2.0
CREATION_DATE  = 
ORIGINATOR     = 

OBJECT_NAME    = SL-8 R/B
OBJECT_ID      = 1985-006B
CENTER_NAME    = EARTH
REF_FRAME      = TEME
TIME_SYSTEM    = UTC
MEAN_ELEMENT_THEORY = SGP/SGP4

EPOCH          = 2025-12-03T17:09:56.782656
MEAN_MOTION    = 14.37712468
ECCENTRICITY   = .00182931
INCLINATION    = 74.0465
RA_OF_ASC_NODE = 77.7377
ARG_OF_PERICENTER = 12.2652
MEAN_ANOMALY   = 98.7647

EPHEMERIS_TYPE = 0
CLASSIFICATION_TYPE = U
NORAD_CAT_ID   = 15483
ELEMENT_SET_NO = 999
REV_AT_EPOCH   = 14023
BSTAR          = .15321403E-3
MEAN_MOTION_DOT = .435E-5
MEAN_MOTION_DDOT = 0

CCSDS_OMM_VERS = 2.0
CREATION_DATE  = 
ORIGINATOR     = 

OBJECT_NAME    = SL-12 R/B(2)
OBJECT_ID      = 1985-042D
CENTER_NAME    = EARTH
REF_FRAME      = TEME
TIME_SYSTEM    = UTC
MEAN_ELEMENT_THEORY = SGP/SGP4

EPOCH          = 2025-12-03T22:50:34.782144
MEAN_MOTION    = 14.21947596
ECCENTRICITY   = .0037688
INCLINATION    = 71.1081
RA_OF_ASC_NODE = 289.9851
ARG_OF_PERICENTER = 274.3248
MEAN_ANOMALY   = 143.1512

EPHEMERIS_TYPE = 0
CLASSIFICATION_TYPE = U
NORAD_CAT_ID   = 15772
ELEMENT_SET_NO = 999
REV_AT_EPOCH   = 10078
BSTAR          = .96248911E-4
MEAN_MOTION_DOT = .166E-5
MEAN_MOTION_DDOT = 0

CCSDS_OMM_VERS = 2.0
CREATION_DATE  = 
ORIGINATOR     = 

OBJECT_NAME    = SL-14 R/B
OBJECT_ID      = 1985-069B
CENTER_NAME    = EARTH
REF_FRAME      = TEME
TIME_SYSTEM    = UTC
MEAN_ELEMENT_THEORY = SGP/SGP4

EPOCH          = 2025-12-03T21:10:27.868800
MEAN_MOTION    = 14.86307555
ECCENTRICITY   = .00195914
INCLINATION    = 82.5259
RA_OF_ASC_NODE = 115.0296
ARG_OF_PERICENTER = 146.2527
MEAN_ANOMALY   = 213.9941

EPHEMERIS_TYPE = 0
CLASSIFICATION_TYPE = U
NORAD_CAT_ID   = 15945
ELEMENT_SET_NO = 999
REV_AT_EPOCH   = 15860
BSTAR          = .12167712E-3
MEAN_MOTION_DOT = .1099E-4
MEAN_MOTION_DDOT = 0

CCSDS_OMM_VERS = 2.0
CREATION_DATE  = 
ORIGINATOR     = 

OBJECT_NAME    = SL-16 R/B
OBJECT_ID      = 1985-097B
CENTER_NAME    = EARTH
REF_FRAME      = TEME
TIME_SYSTEM    = UTC
MEAN_ELEMENT_THEORY = SGP/SGP4

EPOCH          = 2025-12-03T11:26:00.695616
MEAN_MOTION    = 14.16581776
ECCENTRICITY   = .00061016
INCLINATION    = 71.0032
RA_OF_ASC_NODE = 343.1060
ARG_OF_PERICENTER = 25.6046
MEAN_ANOMALY   = 126.6681

EPHEMERIS_TYPE = 0
CLASSIFICATION_TYPE = U
NORAD_CAT_ID   = 16182
ELEMENT_SET_NO = 999
REV_AT_EPOCH   = 7360
BSTAR          = -.54572677E-4
MEAN_MOTION_DOT = -.157E-5
MEAN_MOTION_DDOT = 0

CCSDS_OMM_VERS = 2.0
CREATION_DATE  = 
ORIGINATOR     = 

OBJECT_NAME    = SL-14 R/B
OBJECT_ID      = 1986-006B
CENTER_NAME    = EARTH
REF_FRAME      = TEME
TIME_SYSTEM    = UTC
MEAN_ELEMENT_THEORY = SGP/SGP4

EPOCH          = 2025-12-03T13:06:30.690720
MEAN_MOTION    = 14.86651791
ECCENTRICITY   = .00755171
INCLINATION    = 82.5267
RA_OF_ASC_NODE = 350.2025
ARG_OF_PERICENTER = 230.6763
MEAN_ANOMALY   = 128.7744

EPHEMERIS_TYPE = 0
CLASSIFICATION_TYPE = U
NORAD_CAT_ID   = 16496
ELEMENT_SET_NO = 999
REV_AT_EPOCH   = 13492
BSTAR          = .10948761E-3
MEAN_MOTION_DOT = .1049E-4
MEAN_MOTION_DDOT = 0

CCSDS_OMM_VERS = 2.0
CREATION_DATE  = 
ORIGINATOR     = 

OBJECT_NAME    = COSMOS 1743
OBJECT_ID      = 1986-034A
CENTER_NAME    = EARTH
REF_FRAME      = TEME
TIME_SYSTEM    = UTC
MEAN_ELEMENT_THEORY = SGP/SGP4

EPOCH          = 2025-12-03T15:02:25.006848
MEAN_MOTION    = 15.51430535
ECCENTRICITY   = .00048946
INCLINATION    = 82.5347
RA_OF_ASC_NODE = 174.0521
ARG_OF_PERICENTER = 293.6585
MEAN_ANOMALY   = 66.4153

EPHEMERIS_TYPE = 0
CLASSIFICATION_TYPE = U
NORAD_CAT_ID   = 16719
ELEMENT_SET_NO = 999
REV_AT_EPOCH   = 16532
BSTAR          = .60514871E-3
MEAN_MOTION_DOT = .35814E-3
MEAN_MOTION_DDOT = 0

