SL-3 R/B                
1 13403U 82079B   25337.94567570  .00010505  00000+0  43554-3 0  9994
2 13403  81.1457 306.0260 0026793 127.1030 233.2658 15.23428033363111
SL-3 R/B                
1 14208U 83075B   25337.99254442  .00018314  00000+0  52254-3 0  9994
2 14208  97.6095 334.1845 0021764 207.4043 152.6054 15.35862445315455
SL-14 R/B               
1 14820U 84027B   25337.46428923  .00000827  00000+0  92105-4 0  9991
2 14820  82.5409 335.2556 0016530 294.4813  65.4679 14.85858141233347
SL-8 R/B                
1 15483U 85006B   25337.71524054  .00000435  00000+0  15321-3 0  9994
2 15483  74.0465  77.7377 0018293  12.2652  98.7647 14.37712468140232
SL-12 R/B(2)            
1 15772U 85042D   25337.95179146  .00000166  00000+0  96249-4 0  9999
2 15772  71.1081 289.9851 0037688 274.3248 143.1512 14.21947596100787
SL-14 R/B               
1 15945U 85069B   25337.88226700  .00001099  00000+0  12168-3 0  9994
2 15945  82.5259 115.0296 0019591 146.2527 213.9941 14.86307555158606
SL-16 R/B               
1 16182U 85097B   25337.47639694 -.00000157  00000+0 -54573-4 0  9997
2 16182  71.0032 343.1060 0006101  25.6046 126.6681 14.16581776 73603
SL-14 R/B               
1 16496U 86006B   25337.54618855  .00001049  00000+0  10949-3 0  9997
2 16496  82.5267 350.2025 0075517 230.6763 128.7744 14.86651791134927
COSMOS 1743             
1 16719U 86034A   25337.62667832  .00035814  00000+0  60515-3 0  9995
2 16719  82.5347 174.0521 0004894 293.6585  66.4153 15.51430535165322
